# From MPEC 2023-R20
C/1974 F1 (Lovas),h,08/15.8542/1975,50.2831,11.6200,262.0371,1.000079,3.063724,2000,8.4,4.0
# From MPEC 2023-R20
C/1977 D1 (Lovas),e,64.3915,338.5833,145.8617,2232,0.0000093,0.99747166,0.0000,10/23.1238/1976,2000,g  8.3,4.0
# From MPEC 2023-R20
C/1990 K1 (Levy),h,11/12.0694/1990,131.7377,139.6440,242.5421,1.000984,0.910934,2000,4.8,4.0
# From MPEC 2022-S20
C/1995 O1 (Hale-Bopp),e,89.5036,282.2839,130.4221,176.9611,0.0004187,0.99496439,0.0000,03/29.4251/1997,2000,g -2.0,4.0
# From NK 1615
P/1996 R2 (Lagerkvist),e,2.6008,40.0092,333.4509,3.774103,0.1344260,0.31461679,224.3609,09/10.0/2023,2000,g 11.5,4.0
# From MPC 75703
P/1998 VS24 (LINEAR),e,5.0263,159.0293,244.7124,4.523646,0.1024404,0.24355495,210.6908,09/10.0/2023,2000,g 13.0,2.0
# From NK 731
P/1999 RO28 (LONEOS),e,7.5636,137.8452,231.3434,3.426166,0.1554145,0.67250603,238.6176,09/10.0/2023,2000,g 20.0,2.0
# From MPC 75704
P/1999 XN120 (Catalina),e,5.0297,285.2950,161.6451,4.179157,0.1153642,0.21066623,263.7237,09/10.0/2023,2000,g 13.5,2.0
# From NK 744
P/2000 R2 (LINEAR),e,11.6833,160.2831,176.6045,3.468100,0.1526042,0.53111762,235.7803,09/10.0/2023,2000,g 18.0,4.0
# From MPC 43019
P/2001 H5 (NEAT),e,8.3669,328.6836,224.6553,6.095682,0.0654893,0.59824583,189.3953,09/10.0/2023,2000,g 12.0,4.0
# From MPC 75704
P/2001 Q6 (NEAT),e,56.9111,22.1851,42.9300,7.969319,0.0438099,0.82361678,352.4950,09/10.0/2023,2000,g 13.5,4.0
# From MPC 47727
P/2002 EJ57 (LINEAR),e,4.9806,330.2802,167.2610,6.459714,0.0600322,0.59280420,114.6841,09/10.0/2023,2000,g 12.5,4.0
# From MPC109588
P/2002 T6 (NEAT-LINEAR),e,10.8574,206.0428,219.2927,7.780652,0.0454130,0.56476766,345.8220,09/10.0/2023,2000,g 10.5,4.0
# From MPC 75007
C/2002 VQ94 (LINEAR),e,70.7135,35.1655,99.8898,184.6290,0.0003929,0.96324356,2.5255,09/10.0/2023,2000,g  9.5,2.0
# From MPC 50354
P/2003 F2 (NEAT),e,11.6235,358.9538,192.2947,6.501222,0.0594582,0.54134559,83.1168,09/10.0/2023,2000,g 16.5,2.0
# From MPC 50139
P/2003 QX29 (NEAT),e,11.3970,264.4920,37.7156,8.009241,0.0434828,0.47209518,329.6922,09/10.0/2023,2000,g  8.5,4.0
# From MPC105235
P/2003 T12 (SOHO),e,11.0214,174.5775,219.7749,2.584835,0.2371673,0.77027381,289.3841,09/10.0/2023,2000,g 17.0,4.0
# From MPC 54558
P/2004 DO29 (Spacewatch-LINEAR),e,14.5282,147.3798,40.4330,7.303356,0.0499368,0.44171295,346.6562,09/10.0/2023,2000,g 13.5,2.0
# From MPEC 2022-YN2
P/2004 FY140 (LINEAR),e,2.1619,327.2728,254.1503,4.969882,0.0889580,0.19175162,247.7572,09/10.0/2023,2000,g 12.5,2.0
# From MPC 53304
P/2004 R3 (LINEAR-NEAT),e,12.7861,305.2812,37.5282,4.757507,0.0949806,0.25487794,68.4704,09/10.0/2023,2000,g 14.5,4.0
# From MPEC 2023-R20
P/2004 V3 (SidingSpring),e,50.4445,356.1257,322.5450,7.124280,0.0518314,0.44557178,356.2683,09/10.0/2023,2000,g 11.5,4.0
# From MPC 75705
P/2004 V5 (LINEAR-Hill),e,19.3507,47.7671,87.4509,8.003639,0.0435284,0.44607010,297.7287,09/10.0/2023,2000,g  8.0,4.0
# From MPC 54164
P/2005 E1 (Tubbiolo),e,4.2618,335.5780,193.8282,7.057048,0.0525738,0.37611882,359.0610,09/10.0/2023,2000,g 10.0,4.0
# From MPC 79019
P/2005 J1 (McNaught),e,31.7317,268.8287,338.8956,3.572894,0.1459398,0.56896235,262.0916,09/10.0/2023,2000,g 16.5,4.0
# From MPC 74246
P/2005 L1 (McNaught),e,7.6682,137.2641,151.7954,4.012052,0.1226462,0.21796926,81.8916,09/10.0/2023,2000,g  9.5,4.0
# From MPC 75706
P/2005 S2 (Skiff),e,3.1358,161.2163,229.6929,7.997795,0.0435761,0.19888696,274.6557,09/10.0/2023,2000,g  7.5,4.0
# From MPC 75706
P/2005 SB216 (LONEOS),e,24.1193,1.1173,83.2017,7.152253,0.0515276,0.46522658,315.8028,09/10.0/2023,2000,g 12.0,2.0
# From MPC 73461
P/2005 T3 (Read),e,6.2253,27.6299,6.7653,7.588239,0.0471512,0.17557970,309.5557,09/10.0/2023,2000,g  9.0,4.0
# From MPC 73461
P/2005 T4 (SWAN),e,160.2789,25.9489,41.8857,9.355985,0.0344405,0.93005241,225.2028,09/10.0/2023,2000,g 15.0,4.0
# From MPC 75706
P/2005 T5 (Broughton),e,21.3842,57.0059,304.7623,7.273327,0.0502463,0.55251751,327.6645,09/10.0/2023,2000,g 11.0,4.0
# From MPC 75707
P/2006 HR30 (Siding Spring),e,31.8927,309.7681,117.4640,7.805676,0.0451948,0.84348557,276.1268,09/10.0/2023,2000,g 11.0,4.0
# From MPC 75707
P/2007 C2 (Catalina),e,8.6032,275.2416,180.1856,7.005262,0.0531579,0.47275143,310.8710,09/10.0/2023,2000,g 10.0,4.0
# From MPC 84315
C/2007 D1 (LINEAR),e,41.5030,171.1977,339.7113,1144,0.0000255,0.99233909,0.0000,06/08.3145/2007,2000,g  3.5,4.0
# From MPC 82314
P/2007 K2 (Gibbs),e,7.6263,188.6296,347.2876,7.287516,0.0500997,0.68383099,299.6164,09/10.0/2023,2000,g 14.0,4.0
# From MPC 60925
P/2007 Q2 (Gilmore),e,10.2018,172.1610,162.8924,5.659936,0.0731959,0.66969738,74.4606,09/10.0/2023,2000,g 16.0,4.0
# From MPC 73462
P/2007 S1 (Zhao),e,5.9612,141.3393,245.1880,3.816892,0.1321720,0.33852412,44.7131,09/10.0/2023,2000,g 13.0,4.0
# From MPC 61994
P/2007 T2 (Kowalski),e,9.7510,3.3719,359.6870,3.044396,0.1855464,0.78566479,347.2685,09/10.0/2023,2000,g 18.5,4.0
# From MPC 64114
P/2008 O3 (Boattini),e,32.3519,47.5593,341.2119,8.212161,0.0418811,0.69657608,233.3721,09/10.0/2023,2000,g 13.0,4.0
# From MPC 75710
P/2008 Y3 (McNaught),e,38.7836,262.8917,237.9861,8.046011,0.0431850,0.44652611,232.4794,09/10.0/2023,2000,g  8.5,4.0
# From MPC 75710
P/2009 B1 (Boattini),e,22.2488,297.0689,128.9460,6.735017,0.0563892,0.63595617,302.2382,09/10.0/2023,2000,g 13.0,4.0
# From MPC 66466
C/2009 G1 (STEREO),e,108.2925,120.6718,175.5354,472.4424,0.0000960,0.99759147,0.0000,04/19.5098/2009,2000,g  9.0,4.0
# From MPC 75710
P/2009 O3 (Hill),e,16.2861,183.6869,154.5039,7.767023,0.0455326,0.68735151,237.4330,09/10.0/2023,2000,g 12.5,4.0
# From MPC 68902
P/2009 Q5 (McNaught),e,40.9698,160.2479,209.1735,7.426635,0.0486985,0.60996187,248.5207,09/10.0/2023,2000,g 10.0,4.0
# From MPC112389
P/2009 T2 (La Sagra),e,27.6161,215.9221,216.3340,7.715049,0.0459935,0.76703712,229.8227,09/10.0/2023,2000,g 14.0,4.0
# From MPC105235
P/2009 WX51 (Catalina),e,9.5965,31.5397,118.2724,3.082753,0.1820941,0.73928673,187.2916,09/10.0/2023,2000,g 19.0,2.0
# From MPC 74247
P/2009 Y2 (Kowalski),e,29.9769,262.0580,172.1592,6.547345,0.0588310,0.63717928,290.6485,09/10.0/2023,2000,g 13.0,4.0
# From MPC 75711
P/2010 A3 (Hill),e,14.8147,63.5941,42.2975,6.091701,0.0655536,0.73397072,324.0393,09/10.0/2023,2000,g 14.0,4.0
# From MPC 75008
P/2010 C1 (Scotti),e,9.1185,141.8115,3.1198,7.112334,0.0519620,0.26177242,264.0196,09/10.0/2023,2000,g  9.5,4.0
# From MPC 75008
P/2010 D2 (WISE),e,57.1116,319.8789,119.9051,6.722901,0.0565417,0.45161873,280.9468,09/10.0/2023,2000,g 16.0,4.0
# From MPC 75009
P/2010 E2 (Jarnac),e,15.3906,177.8236,8.2529,8.639737,0.0388109,0.71959610,191.0547,09/10.0/2023,2000,g 14.0,4.0
# From MPC 72851
P/2010 H2 (Vales),e,14.2807,64.1874,128.0493,3.831537,0.1314149,0.19708035,288.1498,09/10.0/2023,2000,g  6.0,4.0
# From MPC 70361
P/2010 H3 (SOHO),e,23.1265,77.1556,26.0850,3.036060,0.1863110,0.98545965,0.0000,02/07.8572/2021,2000,g 20.0,2.0
# From MPC 73463
P/2010 H4 (Scotti),e,2.3178,44.7285,179.1221,6.606135,0.0580474,0.26601485,281.7376,09/10.0/2023,2000,g 10.5,4.0
# From MPC 74637
P/2010 H5 (Scotti),e,14.0567,24.7914,174.4584,7.174693,0.0512860,0.15280267,253.1183,09/10.0/2023,2000,g 13.0,2.0
# From MPC 98558
P/2010 J3 (McMillan),e,13.2483,106.5017,157.5316,8.983994,0.0366016,0.72478699,174.5474,09/10.0/2023,2000,g 11.0,4.0
# From MPC 84315
P/2010 JC81 (WISE),e,38.8357,30.8737,12.4488,8.104101,0.0427215,0.77822525,192.9659,09/10.0/2023,2000,g  9.0,4.0
# From MPC 74248
P/2010 T2 (PANSTARRS),e,7.9028,58.3715,351.9173,5.619125,0.0739948,0.32788561,346.5613,09/10.0/2023,2000,g 11.5,4.0
# From MPEC 2023-O88
P/2010 TO20 (LINEAR-Grauer),e,2.4788,43.2745,267.7901,5.832452,0.0699725,0.05557396,19.7929,09/10.0/2023,2000,g  9.0,4.0
# From MPC 82316
P/2010 U1 (Boattini),e,8.2246,280.6706,86.4516,6.496242,0.0595266,0.24915802,294.9071,09/10.0/2023,2000,g  9.5,4.0
# From MPEC 2023-J95
C/2010 U3 (Boattini),e,55.5664,42.9875,88.0373,3475,0.0000048,0.99757191,0.0000,02/25.7550/2019,2000,g  1.0,4.0
# From MPC 79021
P/2010 UH55 (Spacewatch),e,8.0374,232.8874,225.1660,6.653835,0.0574243,0.56419000,260.7846,09/10.0/2023,2000,g 11.0,4.0
# From MPC 75009
P/2010 WK (LINEAR),e,11.4019,11.3274,41.0090,5.762347,0.0712533,0.69068401,337.5328,09/10.0/2023,2000,g 14.5,2.0
# From MPEC 2023-R42
P/2010 YK3,e,4.7910,283.3466,94.9573,5.705410,0.0723226,0.62782565,352.6734,09/10.0/2023,2000,g 12.0,4.0
# From MPC 84021
P/2011 C2 (Gibbs),e,10.8881,12.1196,160.2616,7.413079,0.0488322,0.26952913,209.6682,09/10.0/2023,2000,g  9.0,4.0
# From MPC 79866
P/2011 FR143 (Lemmon),e,15.9742,190.9470,349.8052,6.867802,0.0547618,0.45126209,251.7600,09/10.0/2023,2000,g 14.0,2.0
# From MPC 82317
P/2011 JB15 (Spacewatch-Boattini),e,19.1420,153.6085,110.9476,7.371892,0.0492420,0.31509729,209.8311,09/10.0/2023,2000,g  9.0,4.0
# From MPEC 2023-J95
C/2011 KP36 (Spacewatch),e,18.9856,173.2750,180.9528,39.46699,0.0039751,0.87579860,10.5739,09/10.0/2023,2000,g  4.5,4.0
# From MPC 87913
P/2011 N1 (ASH),e,35.7889,77.5758,330.4428,6.241338,0.0632103,0.54539930,260.6037,09/10.0/2023,2000,g 11.5,4.0
# From MPC 75714
P/2011 NO1 (Elenin),e,15.2454,295.8249,263.7087,5.535370,0.0756805,0.77479876,350.3159,09/10.0/2023,2000,g 15.0,4.0
# From MPEC 2022-ED3
P/2011 P1 (McNaught),e,5.6590,4.2265,349.2271,7.458060,0.0483911,0.32747982,231.4684,09/10.0/2023,2000,g  9.0,4.0
# From MPEC 2022-HC2
P/2011 S1 (Gibbs),e,2.6890,218.8117,192.6537,8.585251,0.0391809,0.20177268,129.6437,09/10.0/2023,2000,g  8.0,4.0
# From MPC 79022
P/2011 UA134 (Spacewatch-PANSTARRS),e,10.4403,40.3918,32.4191,5.610516,0.0741652,0.63003350,321.0015,09/10.0/2023,2000,g 17.5,4.0
# From MPC 77406
P/2011 V1 (Boattini),e,7.3752,46.7710,269.3916,3.858171,0.1300564,0.54963294,234.6336,09/10.0/2023,2000,g 15.5,4.0
# From MPC 82718
P/2011 W1 (PANSTARRS),e,3.7184,161.7850,282.8504,4.669184,0.0976883,0.28841486,56.5284,09/10.0/2023,2000,g 11.5,4.0
# From MPC 79342
P/2011 Y2 (Boattini),e,6.3838,309.2999,132.0078,6.235777,0.0632948,0.71079570,266.1111,09/10.0/2023,2000,g 15.0,4.0
# From MPEC 2022-K19
